NUSAT-48 (HENRIETTA LE*)
1 60498U 24149AG  26068.80506098  .00012988  00000+0  45212-3 0  9999
2 60498  97.3923 150.8264 0002754 263.3026  96.7901 15.29812597 86946
STARLINK-35303          
1 65860U 25223G   26068.88468308  .00031084  00000+0  10570-2 0  9996
2 65860  53.1601 293.4015 0000871 102.6986 257.4112 15.30208014 24232
